STARLINK-5858           
1 57264U 23094AY  26068.16354126 -.00000195  00000+0  62342-6 0  9990
2 57264  43.0035  19.9351 0001278 268.4358  91.6338 15.02532713147194
CHAMRAN-1               
1 61072U 24165B   26068.91010681  .00007263  00000+0  44320-3 0  9995
2 61072  64.0789   8.4365 0045019 310.8781  48.8437 15.10235792 81665
